CTC2_L_00007016-03
1 10062U 26993II  26075.70040509  .00000000  00000+0  00000-0 0  9992
2 10062  40.0000 180.0000 0000000   0.0000   0.0000 15.80155680    14
CTC2_L_00007016-04
1 10063U 23537PN  26075.70040509  .00000000  00000+0  00000-0 0  9994
2 10063  40.0000 180.0000 0000000   0.0000  90.0000 15.80155680    14
CTC2_L_00007017-01
1 10064U 24899WT  26075.70040509  .00000000  00000+0  00000-0 0  9997
2 10064  40.0000 192.0000 0000000   0.0000 192.0000 15.80155680    11
CTC2_L_00007017-02
1 10065U 22672ZC  26075.70040509  .00000000  00000+0  00000-0 0  9995
2 10065  40.0000 192.0000 0000000   0.0000 282.0000 15.80155680    12
CTC2_L_00007017-03
1 10066U 22536DZ  26075.70040509  .00000000  00000+0  00000-0 0  9995
2 10066  40.0000 192.0000 0000000   0.0000  12.0000 15.80155680    14
CTC2_L_00007017-04
1 10067U 26013KW  26075.70040509  .00000000  00000+0  00000-0 0  9990
2 10067  40.0000 192.0000 0000000   0.0000 102.0000 15.80155680    15
CTC2_L_00007018-01
1 10068U 26568IA  26075.70040509  .00000000  00000+0  00000-0 0  9996
2 10068  40.0000 204.0000 0000000   0.0000 204.0000 15.80155680    13
CTC2_L_00007018-02
1 10069U 24006DO  26075.70040509  .00000000  00000+0  00000-0 0  9992
2 10069  40.0000 204.0000 0000000   0.0000 294.0000 15.80155680    13
CTC2_L_00007018-03
1 10070U 23442RU  26075.70040509  .00000000  00000+0  00000-0 0  9997
2 10070  40.0000 204.0000 0000000   0.0000  24.0000 15.80155680    16
CTC2_L_00007018-04
1 10071U 25616AE  26075.70040509  .00000000  00000+0  00000-0 0  9993
2 10071  40.0000 204.0000 0000000   0.0000 114.0000 15.80155680    17
CTC2_L_00007019-01
1 10072U 22543RR  26075.70040509  .00000000  00000+0  00000-0 0  9990
2 10072  40.0000 216.0000 0000000   0.0000 216.0000 15.80155680    14
CTC2_L_00007019-02
1 10073U 25496CT  26075.70040509  .00000000  00000+0  00000-0 0  9991
2 10073  40.0000 216.0000 0000000   0.0000 306.0000 15.80155680    15
CTC2_L_00007019-03
1 10074U 23816IS  26075.70040509  .00000000  00000+0  00000-0 0  9996
2 10074  40.0000 216.0000 0000000   0.0000  36.0000 15.80155680    16
CTC2_L_00007019-04
1 10075U 22818DE  26075.70040509  .00000000  00000+0  00000-0 0  9998
2 10075  40.0000 216.0000 0000000   0.0000 126.0000 15.80155680    17
CTC2_L_00007020-01
1 10076U 24255NP  26075.70040509  .00000000  00000+0  00000-0 0  9996
2 10076  40.0000 228.0000 0000000   0.0000 228.0000 15.80155680    14
CTC2_L_00007020-02
1 10077U 24698W   26075.70040509  .00000000  00000+0  00000-0 0  9998
2 10077  40.0000 228.0000 0000000   0.0000 318.0000 15.80155680    15
CTC2_L_00007020-03
1 10078U 25509RK  26075.70040509  .00000000  00000+0  00000-0 0  9991
2 10078  40.0000 228.0000 0000000   0.0000  48.0000 15.80155680    16
CTC2_L_00007020-04
1 10079U 25195KE  26075.70040509  .00000000  00000+0  00000-0 0  9993
2 10079  40.0000 228.0000 0000000   0.0000 138.0000 15.80155680    17
CTC2_L_00007021-01
1 10080U 22186IQ  26075.70040509  .00000000  00000+0  00000-0 0  9992
2 10080  40.0000 240.0000 0000000   0.0000 240.0000 15.80155680    17
CTC2_L_00007021-02
1 10081U 24633PA  26075.70040509  .00000000  00000+0  00000-0 0  9992
2 10081  40.0000 240.0000 0000000   0.0000 330.0000 15.80155680    18
CTC2_L_00007021-03
1 10082U 23626SP  26075.70040509  .00000000  00000+0  00000-0 0  9994
2 10082  40.0000 240.0000 0000000   0.0000  60.0000 15.80155680    19
CTC2_L_00007021-04
1 10083U 24916LM  26075.70040509  .00000000  00000+0  00000-0 0  9998
2 10083  40.0000 240.0000 0000000   0.0000 150.0000 15.80155680    10
CTC2_L_00007022-01
1 10084U 25478FV  26075.70040509  .00000000  00000+0  00000-0 0  9993
2 10084  40.0000 252.0000 0000000   0.0000 252.0000 15.80155680    17
CTC2_L_00007022-02
1 10085U 22864PY  26075.70040509  .00000000  00000+0  00000-0 0  9990
2 10085  40.0000 252.0000 0000000   0.0000 342.0000 15.80155680    18
CTC2_L_00007022-03
1 10086U 24082AW  26075.70040509  .00000000  00000+0  00000-0 0  9995
2 10086  40.0000 252.0000 0000000   0.0000  72.0000 15.80155680    19
CTC2_L_00007022-04
1 10087U 24815GF  26075.70040509  .00000000  00000+0  00000-0 0  9990
2 10087  40.0000 252.0000 0000000   0.0000 162.0000 15.80155680    10
CTC2_L_00007023-01
1 10088U 23985VH  26075.70040509  .00000000  00000+0  00000-0 0  9998
2 10088  40.0000 264.0000 0000000   0.0000 264.0000 15.80155680    17
CTC2_L_00007023-02
1 10089U 26785MH  26075.70040509  .00000000  00000+0  00000-0 0  9990
2 10089  40.0000 264.0000 0000000   0.0000 354.0000 15.80155680    18
CTC2_L_00007023-03
1 10090U 26866QH  26075.70040509  .00000000  00000+0  00000-0 0  9992
2 10090  40.0000 264.0000 0000000   0.0000  84.0000 15.80155680    10
CTC2_L_00007023-04
1 10091U 22846XA  26075.70040509  .00000000  00000+0  00000-0 0  9997
2 10091  40.0000 264.0000 0000000   0.0000 174.0000 15.80155680    11
CTC2_L_00007024-01
1 10092U 23364FE  26075.70040509  .00000000  00000+0  00000-0 0  9994
2 10092  40.0000 276.0000 0000000   0.0000 276.0000 15.80155680    18
CTC2_L_00007024-02
1 10093U 26849WP  26075.70040509  .00000000  00000+0  00000-0 0  9996
2 10093  40.0000 276.0000 0000000   0.0000   6.0000 15.80155680    10
CTC2_L_00007024-03
1 10094U 25976XK  26075.70040509  .00000000  00000+0  00000-0 0  9997
2 10094  40.0000 276.0000 0000000   0.0000  96.0000 15.80155680    10
CTC2_L_00007024-04
1 10095U 26445FQ  26075.70040509  .00000000  00000+0  00000-0 0  9990
2 10095  40.0000 276.0000 0000000   0.0000 186.0000 15.80155680    11
CTC2_L_00007025-01
1 10096U 22007FL  26075.70040509  .00000000  00000+0  00000-0 0  9991
2 10096  40.0000 288.0000 0000000   0.0000 288.0000 15.80155680    18
CTC2_L_00007025-02
1 10097U 24645WH  26075.70040509  .00000000  00000+0  00000-0 0  9992
2 10097  40.0000 288.0000 0000000   0.0000  18.0000 15.80155680    10
CTC2_L_00007025-03
1 10098U 24095VW  26075.70040509  .00000000  00000+0  00000-0 0  9992
2 10098  40.0000 288.0000 0000000   0.0000 108.0000 15.80155680    11
CTC2_L_00007025-04
1 10099U 26201CH  26075.70040509  .00000000  00000+0  00000-0 0  9994
2 10099  40.0000 288.0000 0000000   0.0000 198.0000 15.80155680    11
CTC2_L_00007026-01
1 10100U 24811GJ  26075.70040509  .00000000  00000+0  00000-0 0  9992
2 10100  40.0000 300.0000 0000000   0.0000 300.0000 15.80155680    14
CTC2_L_00007026-02
1 10101U 23171BO  26075.70040509  .00000000  00000+0  00000-0 0  9991
2 10101  40.0000 300.0000 0000000   0.0000  30.0000 15.80155680    15
CTC2_L_00007026-03
1 10102U 24965SL  26075.70040509  .00000000  00000+0  00000-0 0  9994
2 10102  40.0000 300.0000 0000000   0.0000 120.0000 15.80155680    16
CTC2_L_00007026-04
1 10103U 23098QI  26075.70040509  .00000000  00000+0  00000-0 0  9991
2 10103  40.0000 300.0000 0000000   0.0000 210.0000 15.80155680    17
CTC2_L_00007027-01
1 10104U 26176J   26075.70040509  .00000000  00000+0  00000-0 0  9992
2 10104  40.0000 312.0000 0000000   0.0000 312.0000 15.80155680    14
CTC2_L_00007027-02
1 10105U 23504OK  26075.70040509  .00000000  00000+0  00000-0 0  9995
2 10105  40.0000 312.0000 0000000   0.0000  42.0000 15.80155680    15
CTC2_L_00007027-03
1 10106U 23191DC  26075.70040509  .00000000  00000+0  00000-0 0  9998
2 10106  40.0000 312.0000 0000000   0.0000 132.0000 15.80155680    16
CTC2_L_00007027-04
1 10107U 25761BK  26075.70040509  .00000000  00000+0  00000-0 0  9994
2 10107  40.0000 312.0000 0000000   0.0000 222.0000 15.80155680    17
CTC2_L_00007028-01
1 10108U 24687GH  26075.70040509  .00000000  00000+0  00000-0 0  9991
2 10108  40.0000 324.0000 0000000   0.0000 324.0000 15.80155680    14
CTC2_L_00007028-02
1 10109U 26689AH  26075.70040509  .00000000  00000+0  00000-0 0  9996
2 10109  40.0000 324.0000 0000000   0.0000  54.0000 15.80155680    15
CTC2_L_00007028-03
1 10110U 25401UJ  26075.70040509  .00000000  00000+0  00000-0 0  9999
2 10110  40.0000 324.0000 0000000   0.0000 144.0000 15.80155680    17
CTC2_L_00007028-04
1 10111U 25933TY  26075.70040509  .00000000  00000+0  00000-0 0  9990
2 10111  40.0000 324.0000 0000000   0.0000 234.0000 15.80155680    18
CTC2_L_00007029-01
1 10112U 23298YV  26075.70040509  .00000000  00000+0  00000-0 0  9993
2 10112  40.0000 336.0000 0000000   0.0000 336.0000 15.80155680    15
CTC2_L_00007029-02
1 10113U 25996PN  26075.70040509  .00000000  00000+0  00000-0 0  9991
2 10113  40.0000 336.0000 0000000   0.0000  66.0000 15.80155680    16
CTC2_L_00007029-03
1 10114U 24368WG  26075.70040509  .00000000  00000+0  00000-0 0  9994
2 10114  40.0000 336.0000 0000000   0.0000 156.0000 15.80155680    17
CTC2_L_00007029-04
1 10115U 26652AT  26075.70040509  .00000000  00000+0  00000-0 0  9993
2 10115  40.0000 336.0000 0000000   0.0000 246.0000 15.80155680    18
CTC2_L_00007030-01
1 10116U 22005SZ  26075.70040509  .00000000  00000+0  00000-0 0  9992
2 10116  40.0000 348.0000 0000000   0.0000 348.0000 15.80155680    15
CTC2_L_00007030-02
1 10117U 22021C   26075.70040509  .00000000  00000+0  00000-0 0  9991
2 10117  40.0000 348.0000 0000000   0.0000  78.0000 15.80155680    16
CTC2_L_00007030-03
1 10118U 23470YM  26075.70040509  .00000000  00000+0  00000-0 0  9991
2 10118  40.0000 348.0000 0000000   0.0000 168.0000 15.80155680    17
CTC2_L_00007030-04
1 10119U 24519WN  26075.70040509  .00000000  00000+0  00000-0 0  9997
2 10119  40.0000 348.0000 0000000   0.0000 258.0000 15.80155680    18
